STARLINK-30938          
1 58389U 23178R   26068.20442567 -.00000342  00000+0  57712-6 0  9993
2 58389  53.1622   3.5666 0000992 108.8928 251.2181 15.30191809129814
TOMORROW-S2             
1 60485U 24149T   26068.75188364  .00008133  00000+0  27683-3 0  9990
2 60485  97.3857 150.0385 0001648 234.3331 125.7757 15.30674935 86869
