[{"OBJECT_NAME":"STARLINK-30938","OBJECT_ID":"2023-178R","EPOCH":"2026-03-09T04:54:22.377888","MEAN_MOTION":15.30191809,"ECCENTRICITY":9.929e-5,"INCLINATION":53.1622,"RA_OF_ASC_NODE":3.5666,"ARG_OF_PERICENTER":108.8928,"MEAN_ANOMALY":251.2181,"EPHEMERIS_TYPE":0,"CLASSIFICATION_TYPE":"U","NORAD_CAT_ID":58389,"ELEMENT_SET_NO":999,"REV_AT_EPOCH":12981,"BSTAR":5.77116e-7,"MEAN_MOTION_DOT":-3.42e-6,"MEAN_MOTION_DDOT":0},{"OBJECT_NAME":"TOMORROW-S2","OBJECT_ID":"2024-149T","EPOCH":"2026-03-09T18:02:42.746496","MEAN_MOTION":15.30674935,"ECCENTRICITY":0.0001648,"INCLINATION":97.3857,"RA_OF_ASC_NODE":150.0385,"ARG_OF_PERICENTER":234.3331,"MEAN_ANOMALY":125.7757,"EPHEMERIS_TYPE":0,"CLASSIFICATION_TYPE":"U","NORAD_CAT_ID":60485,"ELEMENT_SET_NO":999,"REV_AT_EPOCH":8686,"BSTAR":0.00027683033,"MEAN_MOTION_DOT":8.133e-5,"MEAN_MOTION_DDOT":0}]
